STARLINK-36948          
1 68209U 26053C   26089.58336806  .00111691  00000+0  57667-3 0  9997
2 68209  97.2845 324.8728 0001463 101.1085  42.3808 15.80806005  3265
STARLINK-37119          
1 68210U 26053D   26089.58336806  .00167144  00000+0  85870-3 0  9990
2 68210  97.2847 324.8736 0001318  87.0433  60.7385 15.80765659  3371
STARLINK-37120          
1 68211U 26053E   26089.58336806  .00081226  00000+0  42102-3 0  9998
2 68211  97.2845 324.8756 0001218  83.2750  68.7762 15.80807584  3350
STARLINK-37117          
1 68212U 26053F   26089.58336806  .00161512  00000+0  83025-3 0  9995
2 68212  97.2845 324.8780 0001381  82.3932  73.9382 15.80767860  3371
STARLINK-37116          
1 68213U 26053G   26089.58336806  .00084149  00000+0  43596-3 0  9995
2 68213  97.2844 324.8794 0001451  91.9112  68.6863 15.80809195  3373
STARLINK-35854          
1 68214U 26053H   26089.58336806  .00150274  00000+0  77303-3 0  9992
2 68214  97.2852 324.8814 0001207  83.0867  81.7843 15.80782305  3135
STARLINK-36272          
1 68215U 26053J   26089.58336806  .00088042  00000+0  45600-3 0  9991
2 68215  97.2846 324.8828 0001439  78.1703  90.9780 15.80803945  3265
STARLINK-37014          
1 68216U 26053K   26089.58336806  .00108499  00000+0  56080-3 0  9995
2 68216  97.2843 324.8860 0001543  82.1098  91.3162 15.80790747  3373
STARLINK-37011          
1 68217U 26053L   26089.58336806  .00069348  00000+0  35986-3 0  9997
2 68217  97.2843 324.8882 0001457  97.6931  79.9970 15.80819067  3375
STARLINK-37108          
1 68218U 26053M   26089.58336806  .00138191  00000+0  71191-3 0  9999
2 68218  97.2844 324.8896 0001174  81.7176 100.2518 15.80782477  3373
STARLINK-37106          
1 68219U 26053N   26089.58336806  .00302149  00000+0  15358-2 0  9998
2 68219  97.2843 324.8916 0001092  76.4092 109.9147 15.80649171  3370
STARLINK-37030          
1 68220U 26053P   26089.58336806  .00058057  00000+0  30166-3 0  9991
2 68220  97.2845 324.8945 0001443  97.4420  97.3392 15.80828083  3377
